start=new Date('2022-04-02T00:00:00.000Z').valueOf();
sats=[{"ELEMENT_SET_NO":"999","RCS_SIZE":"LARGE","DECAY_DATE":null,"APOAPSIS":"481.802","REF_FRAME":"TEME","GP_ID":"200267194","OBJECT_NAME":"STARLINK-3401","MEAN_MOTION_DDOT":"0.0000000000000","SITE":"AFETR","REV_AT_EPOCH":"364","RA_OF_ASC_NODE":"254.3432","EPOCH":"2022-04-01T22:00:00.999936","ARG_OF_PERICENTER":"41.9961","EPHEMERIS_TYPE":"0","ECCENTRICITY":"0.00016520","PERIAPSIS":"479.536","MEAN_MOTION_DOT":"-0.00711856","TLE_LINE1":"1 51465U 22010K   22091.91667824 -.00711856  00000-0 -27545-1 0  9997","LAUNCH_DATE":"2022-02-03","TIME_SYSTEM":"UTC","MEAN_MOTION":"15.28375736","CENTER_NAME":"EARTH","TLE_LINE2":"2 51465  53.2173 254.3432 0001652  41.9961  57.2448 15.28375736  3641","SEMIMAJOR_AXIS":"6858.804","CLASSIFICATION_TYPE":"U","MEAN_ANOMALY":"57.2448","INCLINATION":"53.2173","COUNTRY_CODE":"US","BSTAR":"-0.02754500000000","MEAN_ELEMENT_THEORY":"SGP4","NORAD_CAT_ID":"51465","OBJECT_ID":"2022-010K","PERIOD":"94.218","FILE":"3383778","OBJECT_TYPE":"PAYLOAD"},{"LAUNCH_DATE":"2022-02-03","TLE_LINE1":"1 51467U 22010M   22091.91667824 -.00719911  00000-0 -29529-1 0  9993","MEAN_MOTION":"15.26092993","CENTER_NAME":"EARTH","TIME_SYSTEM":"UTC","TLE_LINE2":"2 51467  53.2172 254.2924 0001568  47.8071 250.3060 15.26092993 10249","SEMIMAJOR_AXIS":"6865.642","CLASSIFICATION_TYPE":"U","MEAN_ANOMALY":"250.3060","INCLINATION":"53.2172","BSTAR":"-0.02952900000000","COUNTRY_CODE":"US","MEAN_ELEMENT_THEORY":"SGP4","NORAD_CAT_ID":"51467","OBJECT_ID":"2022-010M","PERIOD":"94.359","OBJECT_TYPE":"PAYLOAD","FILE":"3383712","RCS_SIZE":"LARGE","ELEMENT_SET_NO":"999","DECAY_DATE":null,"APOAPSIS":"488.584","REF_FRAME":"TEME","GP_ID":"200241237","OBJECT_NAME":"STARLINK-3178","MEAN_MOTION_DDOT":"0.0000000000000","SITE":"AFETR","RA_OF_ASC_NODE":"254.2924","EPOCH":"2022-04-01T22:00:00.999936","REV_AT_EPOCH":"1024","EPHEMERIS_TYPE":"0","ECCENTRICITY":"0.00015680","ARG_OF_PERICENTER":"47.8071","PERIAPSIS":"486.431","MEAN_MOTION_DOT":"-0.00719911"},{"PERIAPSIS":"480.443","MEAN_MOTION_DOT":"-0.00710123","REV_AT_EPOCH":"1025","RA_OF_ASC_NODE":"254.2963","EPOCH":"2022-04-01T22:00:00.999936","ARG_OF_PERICENTER":"48.9633","ECCENTRICITY":"0.00016000","EPHEMERIS_TYPE":"0","MEAN_MOTION_DDOT":"0.0000000000000","SITE":"AFETR","GP_ID":"200240744","OBJECT_NAME":"STARLINK-3174","REF_FRAME":"TEME","APOAPSIS":"482.638","ELEMENT_SET_NO":"999","RCS_SIZE":"LARGE","DECAY_DATE":null,"PERIOD":"94.236","FILE":"3383712","OBJECT_TYPE":"PAYLOAD","NORAD_CAT_ID":"51468","OBJECT_ID":"2022-010N","BSTAR":"-0.02772000000000","COUNTRY_CODE":"US","MEAN_ELEMENT_THEORY":"SGP4","INCLINATION":"53.2173","CLASSIFICATION_TYPE":"U","MEAN_ANOMALY":"103.5490","SEMIMAJOR_AXIS":"6859.676","TLE_LINE2":"2 51468  53.2173 254.2963 0001600  48.9633 103.5490 15.28084534 10258","TLE_LINE1":"1 51468U 22010N   22091.91667824 -.00710123  00000-0 -27720-1 0  9991","LAUNCH_DATE":"2022-02-03","TIME_SYSTEM":"UTC","MEAN_MOTION":"15.28084534","CENTER_NAME":"EARTH"},{"DECAY_DATE":null,"RCS_SIZE":"LARGE","ELEMENT_SET_NO":"999","REF_FRAME":"TEME","APOAPSIS":"482.379","SITE":"AFETR","MEAN_MOTION_DDOT":"0.0000000000000","OBJECT_NAME":"STARLINK-3182","GP_ID":"200240737","PERIAPSIS":"480.487","MEAN_MOTION_DOT":"-0.00721066","ECCENTRICITY":"0.00013790","EPHEMERIS_TYPE":"0","ARG_OF_PERICENTER":"53.3927","EPOCH":"2022-04-01T22:00:00.999936","RA_OF_ASC_NODE":"254.3445","REV_AT_EPOCH":"1025","TLE_LINE2":"2 51469  53.2173 254.3445 0001379  53.3927  17.5295 15.28120652 10253","MEAN_MOTION":"15.28120652","CENTER_NAME":"EARTH","TIME_SYSTEM":"UTC","LAUNCH_DATE":"2022-02-03","TLE_LINE1":"1 51469U 22010P   22091.91667824 -.00721066  00000-0 -27805-1 0  9994","MEAN_ANOMALY":"17.5295","CLASSIFICATION_TYPE":"U","SEMIMAJOR_AXIS":"6859.568","MEAN_ELEMENT_THEORY":"SGP4","BSTAR":"-0.02780500000000","COUNTRY_CODE":"US","INCLINATION":"53.2173","OBJECT_TYPE":"PAYLOAD","FILE":"3383712","PERIOD":"94.233","NORAD_CAT_ID":"51469","OBJECT_ID":"2022-010P"},{"DECAY_DATE":null,"RCS_SIZE":"MEDIUM","ELEMENT_SET_NO":"999","APOAPSIS":"444.385","REF_FRAME":"TEME","OBJECT_NAME":"STARLINK-3165","GP_ID":"200267285","SITE":"AFETR","MEAN_MOTION_DDOT":"0.0000000000000","EPHEMERIS_TYPE":"0","ECCENTRICITY":"0.00014380","ARG_OF_PERICENTER":"37.3721","EPOCH":"2022-04-01T18:37:06.282624","RA_OF_ASC_NODE":"251.3149","REV_AT_EPOCH":"978","MEAN_MOTION_DOT":"-0.00332601","PERIAPSIS":"442.423","CENTER_NAME":"EARTH","MEAN_MOTION":"15.40916851","TIME_SYSTEM":"UTC","LAUNCH_DATE":"2022-02-03","TLE_LINE1":"1 51471U 22010R   22091.77576716 -.00332601  00000-0 -83078-2 0  9998","TLE_LINE2":"2 51471  53.2133 251.3149 0001438  37.3721 322.7385 15.40916851  9785","SEMIMAJOR_AXIS":"6821.539","MEAN_ANOMALY":"322.7385","CLASSIFICATION_TYPE":"U","INCLINATION":"53.2133","MEAN_ELEMENT_THEORY":"SGP4","COUNTRY_CODE":"US","BSTAR":"-0.00830780000000","NORAD_CAT_ID":"51471","OBJECT_ID":"2022-010R","OBJECT_TYPE":"PAYLOAD","FILE":"3383778","PERIOD":"93.451"},{"MEAN_ELEMENT_THEORY":"SGP4","COUNTRY_CODE":"US","BSTAR":"-0.02759400000000","INCLINATION":"53.2173","OBJECT_TYPE":"PAYLOAD","FILE":"3383778","PERIOD":"94.228","NORAD_CAT_ID":"51472","OBJECT_ID":"2022-010S","TLE_LINE2":"2 51472  53.2173 254.2955 0001689  46.1077 120.5936 15.28212204  3649","MEAN_MOTION":"15.28212204","CENTER_NAME":"EARTH","TIME_SYSTEM":"UTC","LAUNCH_DATE":"2022-02-03","TLE_LINE1":"1 51472U 22010S   22091.91667824 -.00709721  00000-0 -27594-1 0  9997","MEAN_ANOMALY":"120.5936","CLASSIFICATION_TYPE":"U","SEMIMAJOR_AXIS":"6859.294","SITE":"AFETR","MEAN_MOTION_DDOT":"0.0000000000000","OBJECT_NAME":"STARLINK-3415","GP_ID":"200266573","MEAN_MOTION_DOT":"-0.00709721","PERIAPSIS":"480.000","EPHEMERIS_TYPE":"0","ECCENTRICITY":"0.00016890","ARG_OF_PERICENTER":"46.1077","EPOCH":"2022-04-01T22:00:00.999936","RA_OF_ASC_NODE":"254.2955","REV_AT_EPOCH":"364","DECAY_DATE":null,"RCS_SIZE":"LARGE","ELEMENT_SET_NO":"999","REF_FRAME":"TEME","APOAPSIS":"482.317"},{"APOAPSIS":"427.506","REF_FRAME":"TEME","DECAY_DATE":null,"ELEMENT_SET_NO":"999","RCS_SIZE":"LARGE","ARG_OF_PERICENTER":"63.2970","ECCENTRICITY":"0.00012430","EPHEMERIS_TYPE":"0","REV_AT_EPOCH":"738","RA_OF_ASC_NODE":"306.7304","EPOCH":"2022-04-01T22:00:00.999936","PERIAPSIS":"425.815","MEAN_MOTION_DOT":"-0.00723549","GP_ID":"200240712","OBJECT_NAME":"STARLINK-3528","SITE":"AFETR","MEAN_MOTION_DDOT":"0.0000000000000","SEMIMAJOR_AXIS":"6804.795","MEAN_ANOMALY":"290.5731","CLASSIFICATION_TYPE":"U","TIME_SYSTEM":"UTC","MEAN_MOTION":"15.46607638","CENTER_NAME":"EARTH","TLE_LINE1":"1 51714U 22016A   22091.91667824 -.00723549  00000-0 -15452-1 0  9996","LAUNCH_DATE":"2022-02-21","TLE_LINE2":"2 51714  53.2176 306.7304 0001243  63.2970 290.5731 15.46607638  7385","OBJECT_ID":"2022-016A","NORAD_CAT_ID":"51714","FILE":"3383703","OBJECT_TYPE":"PAYLOAD","PERIOD":"93.107","INCLINATION":"53.2176","MEAN_ELEMENT_THEORY":"SGP4","COUNTRY_CODE":"US","BSTAR":"-0.01545200000000"},{"INCLINATION":"53.2177","BSTAR":"-0.01526300000000","COUNTRY_CODE":"US","MEAN_ELEMENT_THEORY":"SGP4","OBJECT_ID":"2022-016B","NORAD_CAT_ID":"51715","PERIOD":"93.084","OBJECT_TYPE":"PAYLOAD","FILE":"3383705","LAUNCH_DATE":"2022-02-21","TLE_LINE1":"1 51715U 22016B   22091.91667824 -.00724272  00000-0 -15263-1 0  9991","MEAN_MOTION":"15.46991529","CENTER_NAME":"EARTH","TIME_SYSTEM":"UTC","TLE_LINE2":"2 51715  53.2177 306.7272 0001377  49.6882 329.9303 15.46991529  7443","SEMIMAJOR_AXIS":"6803.670","CLASSIFICATION_TYPE":"U","MEAN_ANOMALY":"329.9303","GP_ID":"200240750","OBJECT_NAME":"STARLINK-3533","MEAN_MOTION_DDOT":"0.0000000000000","SITE":"AFETR","EPOCH":"2022-04-01T22:00:00.999936","RA_OF_ASC_NODE":"306.7272","REV_AT_EPOCH":"744","EPHEMERIS_TYPE":"0","ECCENTRICITY":"0.00013770","ARG_OF_PERICENTER":"49.6882","MEAN_MOTION_DOT":"-0.00724272","PERIAPSIS":"424.598","RCS_SIZE":"LARGE","ELEMENT_SET_NO":"999","DECAY_DATE":null,"APOAPSIS":"426.472","REF_FRAME":"TEME"},{"CLASSIFICATION_TYPE":"U","MEAN_ANOMALY":"288.3134","SEMIMAJOR_AXIS":"6804.420","TLE_LINE2":"2 51716  53.2176 306.7295 0001171  74.1779 288.3134 15.46735572  7385","LAUNCH_DATE":"2022-02-21","TLE_LINE1":"1 51716U 22016C   22091.91667824 -.00723693  00000-0 -15387-1 0  9995","MEAN_MOTION":"15.46735572","CENTER_NAME":"EARTH","TIME_SYSTEM":"UTC","PERIOD":"93.099","OBJECT_TYPE":"PAYLOAD","FILE":"3383704","NORAD_CAT_ID":"51716","OBJECT_ID":"2022-016C","BSTAR":"-0.01538700000000","COUNTRY_CODE":"US","MEAN_ELEMENT_THEORY":"SGP4","INCLINATION":"53.2176","REF_FRAME":"TEME","APOAPSIS":"427.082","RCS_SIZE":"LARGE","ELEMENT_SET_NO":"999","DECAY_DATE":null,"MEAN_MOTION_DOT":"-0.00723693","PERIAPSIS":"425.488","RA_OF_ASC_NODE":"306.7295","EPOCH":"2022-04-01T22:00:00.999936","REV_AT_EPOCH":"738","EPHEMERIS_TYPE":"0","ECCENTRICITY":"0.00011710","ARG_OF_PERICENTER":"74.1779","MEAN_MOTION_DDOT":"0.0000000000000","SITE":"AFETR","GP_ID":"200240731","OBJECT_NAME":"STARLINK-3543"},{"SITE":"AFETR","MEAN_MOTION_DDOT":"0.0000000000000","GP_ID":"200266595","OBJECT_NAME":"STARLINK-3445","PERIAPSIS":"425.067","MEAN_MOTION_DOT":"-0.00724025","ECCENTRICITY":"0.00012390","EPHEMERIS_TYPE":"0","ARG_OF_PERICENTER":"60.8795","EPOCH":"2022-04-01T22:00:00.999936","RA_OF_ASC_NODE":"306.7283","REV_AT_EPOCH":"367","DECAY_DATE":null,"RCS_SIZE":"LARGE","ELEMENT_SET_NO":"999","REF_FRAME":"TEME","APOAPSIS":"426.753","MEAN_ELEMENT_THEORY":"SGP4","COUNTRY_CODE":"US","BSTAR":"-0.01532600000000","INCLINATION":"53.2177","OBJECT_TYPE":"PAYLOAD","FILE":"3383778","PERIOD":"93.092","NORAD_CAT_ID":"51717","OBJECT_ID":"2022-016D","TLE_LINE2":"2 51717  53.2177 306.7283 0001239  60.8795 310.1946 15.46863568  3679","MEAN_MOTION":"15.46863568","CENTER_NAME":"EARTH","TIME_SYSTEM":"UTC","LAUNCH_DATE":"2022-02-21","TLE_LINE1":"1 51717U 22016D   22091.91667824 -.00724025  00000-0 -15326-1 0  9999","MEAN_ANOMALY":"310.1946","CLASSIFICATION_TYPE":"U","SEMIMAJOR_AXIS":"6804.045"}];
